[{"OBJECT_NAME":"ONEWEB-0276","OBJECT_ID":"2021-060AD","EPOCH":"2026-03-09T22:25:54.137568","MEAN_MOTION":13.16593566,"ECCENTRICITY":0.00018143,"INCLINATION":87.9003,"RA_OF_ASC_NODE":248.5167,"ARG_OF_PERICENTER":94.1873,"MEAN_ANOMALY":265.9465,"EPHEMERIS_TYPE":0,"CLASSIFICATION_TYPE":"U","NORAD_CAT_ID":48994,"ELEMENT_SET_NO":999,"REV_AT_EPOCH":22651,"BSTAR":0.00020599833,"MEAN_MOTION_DOT":9.2e-7,"MEAN_MOTION_DDOT":0},{"OBJECT_NAME":"FENGYUN 1C DEB","OBJECT_ID":"1999-025PK","EPOCH":"2026-03-09T22:29:16.181376","MEAN_MOTION":13.48386976,"ECCENTRICITY":0.03142477,"INCLINATION":99.6526,"RA_OF_ASC_NODE":75.3498,"ARG_OF_PERICENTER":295.8939,"MEAN_ANOMALY":90.923,"EPHEMERIS_TYPE":0,"CLASSIFICATION_TYPE":"U","NORAD_CAT_ID":30058,"ELEMENT_SET_NO":999,"REV_AT_EPOCH":94023,"BSTAR":0.0010480595,"MEAN_MOTION_DOT":8.35e-6,"MEAN_MOTION_DDOT":0}]
